[{"OBJECT_NAME":"STARLINK-2431","OBJECT_ID":"2021-018BE","EPOCH":"2026-03-09T17:15:23.630400","MEAN_MOTION":15.30199783,"ECCENTRICITY":0.00012288,"INCLINATION":53.1617,"RA_OF_ASC_NODE":216.7805,"ARG_OF_PERICENTER":72.2353,"MEAN_ANOMALY":287.8782,"EPHEMERIS_TYPE":0,"CLASSIFICATION_TYPE":"U","NORAD_CAT_ID":47839,"ELEMENT_SET_NO":999,"REV_AT_EPOCH":27710,"BSTAR":-4.2907816e-5,"MEAN_MOTION_DOT":-1.63e-5,"MEAN_MOTION_DDOT":0},{"OBJECT_NAME":"OBJECT A","OBJECT_ID":"2023-085A","EPOCH":"2026-03-09T21:42:39.504096","MEAN_MOTION":15.28003151,"ECCENTRICITY":0.00073195,"INCLINATION":97.4858,"RA_OF_ASC_NODE":178.2033,"ARG_OF_PERICENTER":32.2499,"MEAN_ANOMALY":327.9186,"EPHEMERIS_TYPE":0,"CLASSIFICATION_TYPE":"U","NORAD_CAT_ID":57004,"ELEMENT_SET_NO":999,"REV_AT_EPOCH":15139,"BSTAR":0.00063583858,"MEAN_MOTION_DOT":0.0001733,"MEAN_MOTION_DDOT":0}]
